STARLINK-1689           
1 46372U 20062AZ  23032.75761191 -.00000586  00000+0 -20431-4 0  9993
2 46372  53.0556  58.0618 0001566  90.9070 269.2099 15.06393635133880
STARLINK-1711           
1 46374U 20062BB  23033.13865783  .00001001  00000+0  87797-4 0  9999
2 46374  53.0534 346.0210 0001536  94.4241 265.6923 15.05594269134918
STARLINK-1724           
1 46375U 20062BC  23033.11745123 -.00001189  00000+0 -60964-4 0  9999
2 46375  53.0562  11.4351 0001581 103.0819 257.0346 15.06392738134560
STARLINK-1742           
1 46376U 20062BD  23033.13219495  .00000974  00000+0  84281-4 0  9997
2 46376  53.0537  11.3838 0001433  89.7981 270.3172 15.06395974134568
STARLINK-1758           
1 46380U 20062BH  23033.03221405  .00000394  00000+0  45389-4 0  9997
2 46380  53.0545  36.8333 0001586 103.8567 256.2598 15.06393854134202
STARLINK-1769           
1 46382U 20062BK  23033.14693548  .00002015  00000+0  15412-3 0  9997
2 46382  53.0543  11.3136 0001454 101.7774 258.3378 15.06397629134542
STARLINK-1770           
1 46383U 20062BL  23033.06722774 -.00000417  00000+0 -90883-5 0  9996
2 46383  53.0531  56.6770 0001444  96.4180 263.6973 15.06394786133928
STARLINK-1771           
1 46384U 20062BM  23032.80552225  .00001436  00000+0  11527-3 0  9996
2 46384  53.0553  57.8378 0001427  78.5408 281.5742 15.06401118133881
GAOFEN 11-2             
1 46396U 20064A   23033.38041014  .00016106  00000+0  68182-3 0  9993
2 46396  97.3961 151.7612 0001774 130.9639 313.9227 15.23255721134130
JILIN-01 GAOFEN 3B      
1 46454U 20065A   23033.19974255  .00006609  00000+0  36947-3 0  9991
2 46454  97.4165  84.6099 0014236 161.8752 283.4013 15.13727586131369
JILIN-01 GAOFEN 3C      
1 46455U 20065B   23033.18924059  .00006608  00000+0  36936-3 0  9995
2 46455  97.4120  84.1133 0012747 176.2548 272.8718 15.13749235131362
JILIN-01 GAOFEN 3D      
1 46456U 20065C   23033.17891238  .00006401  00000+0  35797-3 0  9992
2 46456  97.4216  85.1984 0011962 177.2914 270.3918 15.13752105131365
JILIN-01 GAOFEN 3E      
1 46457U 20065D   23033.19368348  .00006431  00000+0  35993-3 0  9997
2 46457  97.4177  84.7007 0012262 180.7899 265.9814 15.13719308131361
JILIN-01 GAOFEN 3F      
1 46458U 20065E   23033.17266317  .00005915  00000+0  33120-3 0  9995
2 46458  97.4103  83.9379 0013092 170.9298 276.5847 15.13724522131368
JILIN-01 GAOFEN 3G      
1 46459U 20065F   23033.16880611  .00006309  00000+0  35284-3 0  9995
2 46459  97.4227  85.3762 0013996 176.4438 271.2668 15.13736161131363
JILIN-01 GAOFEN 3H      
1 46460U 20065G   23033.16393381  .00005860  00000+0  32840-3 0  9996
2 46460  97.4112  84.1046 0013016 173.3909 272.3776 15.13701204131364
JILIN-01 GAOFEN 3I      
1 46461U 20065H   23033.15466517  .00006241  00000+0  34920-3 0  9993
2 46461  97.4211  85.1854 0013594 165.6804 280.1608 15.13728252131365
JILIN-01 GAOFEN 3J      
1 46462U 20065J   23033.20483604  .00006391  00000+0  35749-3 0  9992
2 46462  97.4169  84.7048 0012729 170.1076 230.9924 15.13735527131377
HAIYANG-2C              
1 46469U 20066A   23032.84121261 -.00000105  00000+0 -21773-4 0  9999
2 46469  65.9977  41.0697 0004600 266.3922  93.6573 13.83378646119464
HJ-2A                   
1 46478U 20067A   23031.02432661 -.00000985  00000+0 -13433-3 0  9997
2 46478  97.9788 115.2894 0000779  73.7952  99.5788 14.76447984126284
HJ-2B                   
1 46479U 20067B   23031.04716543  .00001799  00000+0  26584-3 0  9997
2 46479  97.9786 115.6546 0001105  93.1650  16.6499 14.76446045126293
GONETS-M 17             
1 46486U 20068A   23033.08308000  .00000024  00000+0  10000-3 0  9993
2 46486  82.4980  33.3368 0022818 197.4580 162.5721 12.42883806106410
GONETS-M 18             
1 46487U 20068B   23033.05285288  .00000024  00000+0  10000-3 0  9993
2 46487  82.4926  32.9502 0019513 194.5315 165.5206 12.42868680106401
GONETS-M 19             
1 46488U 20068C   23033.18725232  .00000024  00000+0  10000-3 0  9996
2 46488  82.4962  33.0558 0013498 208.3210 151.7140 12.42875400106434
MEZNSAT                 
1 46489U 20068D   23032.36844324  .00007605  00000+0  48657-3 0  9991
2 46489  97.7531 340.4504 0015769 211.0319 148.9979 15.08781080128725
YARILO 1                
1 46490U 20068E   23032.43044652  .00009302  00000+0  58650-3 0  9997
2 46490  97.7520 340.6793 0016392 209.9485 150.0795 15.09243535128741
YARILO 2                
1 46491U 20068F   23032.37672392  .00008271  00000+0  52551-3 0  9997
2 46491  97.7612 340.4707 0015365 218.2567 141.7572 15.09014390128723
LACUNASAT-3             
1 46492U 20068G   23032.43553131  .00008744  00000+0  54896-3 0  9993
2 46492  97.7532 340.6701 0015125 211.9401 148.0912 15.09440116128729
DEKART                  
1 46493U 20068H   23032.56051269  .00004653  00000+0  31783-3 0  9998
2 46493  97.7592 339.8245 0016636 218.7097 141.2931 15.06563261128677
NORBI                   
1 46494U 20068J   23032.54274982  .00004826  00000+0  32611-3 0  9999
2 46494  97.7542 339.8424 0016206 221.1024 138.8969 15.06953372128672
