OBJECT_NAME,OBJECT_ID,EPOCH,MEAN_MOTION,ECCENTRICITY,INCLINATION,RA_OF_ASC_NODE,ARG_OF_PERICENTER,MEAN_ANOMALY,EPHEMERIS_TYPE,CLASSIFICATION_TYPE,NORAD_CAT_ID,ELEMENT_SET_NO,REV_AT_EPOCH,BSTAR,MEAN_MOTION_DOT,MEAN_MOTION_DDOT
STARLINK-1689,2020-062AZ,2023-02-01T18:10:57.669024,15.06393635,.0001566,53.0556,58.0618,90.9070,269.2099,0,U,46372,999,13388,-.20431E-4,-.586E-5,0
STARLINK-1711,2020-062BB,2023-02-02T03:19:40.036512,15.05594269,.0001536,53.0534,346.0210,94.4241,265.6923,0,U,46374,999,13491,.87797E-4,.1001E-4,0
STARLINK-1724,2020-062BC,2023-02-02T02:49:07.786272,15.06392738,.0001581,53.0562,11.4351,103.0819,257.0346,0,U,46375,999,13456,-.60964E-4,-.1189E-4,0
STARLINK-1742,2020-062BD,2023-02-02T03:10:21.643680,15.06395974,.0001433,53.0537,11.3838,89.7981,270.3172,0,U,46376,999,13456,.84281E-4,.974E-5,0
STARLINK-1758,2020-062BH,2023-02-02T00:46:23.293920,15.06393854,.0001586,53.0545,36.8333,103.8567,256.2598,0,U,46380,999,13420,.45389E-4,.394E-5,0
STARLINK-1769,2020-062BK,2023-02-02T03:31:35.225472,15.06397629,.0001454,53.0543,11.3136,101.7774,258.3378,0,U,46382,999,13454,.15412E-3,.2015E-4,0
STARLINK-1770,2020-062BL,2023-02-02T01:36:48.476736,15.06394786,.0001444,53.0531,56.6770,96.4180,263.6973,0,U,46383,999,13392,-.90883E-5,-.417E-5,0
STARLINK-1771,2020-062BM,2023-02-01T19:19:57.122400,15.06401118,.0001427,53.0553,57.8378,78.5408,281.5742,0,U,46384,999,13388,.11527E-3,.1436E-4,0
GAOFEN 11-2,2020-064A,2023-02-02T09:07:47.436096,15.23255721,.0001774,97.3961,151.7612,130.9639,313.9227,0,U,46396,999,13413,.68182E-3,.16106E-3,0
JILIN-01 GAOFEN 3B,2020-065A,2023-02-02T04:47:37.756320,15.13727586,.0014236,97.4165,84.6099,161.8752,283.4013,0,U,46454,999,13136,.36947E-3,.6609E-4,0
JILIN-01 GAOFEN 3C,2020-065B,2023-02-02T04:32:30.386976,15.13749235,.0012747,97.4120,84.1133,176.2548,272.8718,0,U,46455,999,13136,.36936E-3,.6608E-4,0
JILIN-01 GAOFEN 3D,2020-065C,2023-02-02T04:17:38.029632,15.13752105,.0011962,97.4216,85.1984,177.2914,270.3918,0,U,46456,999,13136,.35797E-3,.6401E-4,0
JILIN-01 GAOFEN 3E,2020-065D,2023-02-02T04:38:54.252672,15.13719308,.0012262,97.4177,84.7007,180.7899,265.9814,0,U,46457,999,13136,.35993E-3,.6431E-4,0
JILIN-01 GAOFEN 3F,2020-065E,2023-02-02T04:08:38.097888,15.13724522,.0013092,97.4103,83.9379,170.9298,276.5847,0,U,46458,999,13136,.3312E-3,.5915E-4,0
JILIN-01 GAOFEN 3G,2020-065F,2023-02-02T04:03:04.847904,15.13736161,.0013996,97.4227,85.3762,176.4438,271.2668,0,U,46459,999,13136,.35284E-3,.6309E-4,0
JILIN-01 GAOFEN 3H,2020-065G,2023-02-02T03:56:03.881184,15.13701204,.0013016,97.4112,84.1046,173.3909,272.3776,0,U,46460,999,13136,.3284E-3,.586E-4,0
JILIN-01 GAOFEN 3I,2020-065H,2023-02-02T03:42:43.070688,15.13728252,.0013594,97.4211,85.1854,165.6804,280.1608,0,U,46461,999,13136,.3492E-3,.6241E-4,0
JILIN-01 GAOFEN 3J,2020-065J,2023-02-02T04:54:57.833856,15.13735527,.0012729,97.4169,84.7048,170.1076,230.9924,0,U,46462,999,13137,.35749E-3,.6391E-4,0
HAIYANG-2C,2020-066A,2023-02-01T20:11:20.769504,13.83378646,.00046,65.9977,41.0697,266.3922,93.6573,0,U,46469,999,11946,-.21773E-4,-.105E-5,0
HJ-2A,2020-067A,2023-01-31T00:35:01.819104,14.76447984,.0000779,97.9788,115.2894,73.7952,99.5788,0,U,46478,999,12628,-.13433E-3,-.985E-5,0
HJ-2B,2020-067B,2023-01-31T01:07:55.093152,14.76446045,.0001105,97.9786,115.6546,93.1650,16.6499,0,U,46479,999,12629,.26584E-3,.1799E-4,0
GONETS-M 17,2020-068A,2023-02-02T01:59:38.112000,12.42883806,.0022818,82.4980,33.3368,197.4580,162.5721,0,U,46486,999,10641,.1E-3,.24E-6,0
GONETS-M 18,2020-068B,2023-02-02T01:16:06.488832,12.42868680,.0019513,82.4926,32.9502,194.5315,165.5206,0,U,46487,999,10640,.1E-3,.24E-6,0
GONETS-M 19,2020-068C,2023-02-02T04:29:38.600448,12.42875400,.0013498,82.4962,33.0558,208.3210,151.7140,0,U,46488,999,10643,.1E-3,.24E-6,0
MEZNSAT,2020-068D,2023-02-01T08:50:33.495936,15.08781080,.0015769,97.7531,340.4504,211.0319,148.9979,0,U,46489,999,12872,.48657E-3,.7605E-4,0
YARILO 1,2020-068E,2023-02-01T10:19:50.579328,15.09243535,.0016392,97.7520,340.6793,209.9485,150.0795,0,U,46490,999,12874,.5865E-3,.9302E-4,0
YARILO 2,2020-068F,2023-02-01T09:02:28.946688,15.09014390,.0015365,97.7612,340.4707,218.2567,141.7572,0,U,46491,999,12872,.52551E-3,.8271E-4,0
LACUNASAT-3,2020-068G,2023-02-01T10:27:09.905184,15.09440116,.0015125,97.7532,340.6701,211.9401,148.0912,0,U,46492,999,12872,.54896E-3,.8744E-4,0
DEKART,2020-068H,2023-02-01T13:27:08.296416,15.06563261,.0016636,97.7592,339.8245,218.7097,141.2931,0,U,46493,999,12867,.31783E-3,.4653E-4,0
NORBI,2020-068J,2023-02-01T13:01:33.584448,15.06953372,.0016206,97.7542,339.8424,221.1024,138.8969,0,U,46494,999,12867,.32611E-3,.4826E-4,0
